*******************************************************************************
Ephemeris / WWW_USER Tue Aug  5 12:01:07 2025 Pasadena, USA      / Horizons    
*******************************************************************************
Target body name: Titan (606)                     {source: sat441l}
Center body name: Earth (399)                     {source: DE441}
Center-site name: Mauna Kea
*******************************************************************************
Start time      : A.D. 2018-Aug-02 05:08:00.0000 UT      
Stop  time      : A.D. 2018-Aug-02 15:48:00.0000 UT      
Step-size       : 1 minutes
*******************************************************************************
Target pole/equ : IAU_TITAN                       {West-longitude positive}
Target radii    : 2575.15, 2574.78, 2574.47 km    {Equator_a, b, pole_c}       
Center geodetic : 204.5278, 19.8260847, 4.21024   {E-lon(deg),Lat(deg),Alt(km)}
Center cylindric: 204.5278, 6006.35451, 2151.0229 {E-lon(deg),Dxy(km),Dz(km)}
Center pole/equ : ITRF93                          {East-longitude positive}
Center radii    : 6378.137, 6378.137, 6356.752 km {Equator_a, b, pole_c}       
Target primary  : Saturn
Vis. interferer : MOON (R_eq= 1737.400) km        {source: DE441}
Rel. light bend : Sun                             {source: DE441}
Rel. lght bnd GM: 1.3271E+11 km^3/s^2                                          
Atmos refraction: NO (AIRLESS)
RA format       : HMS
Time format     : CAL 
Calendar mode   : Mixed Julian/Gregorian
RTS-only print  : NO       
EOP file        : eop.250804.p251031                                           
EOP coverage    : DATA-BASED 1962-JAN-20 TO 2025-AUG-04. PREDICTS-> 2025-OCT-30
Units conversion: 1 au= 149597870.700 km, c= 299792.458 km/s, 1 day= 86400.0 s 
Table cut-offs 1: Elevation (-90.0deg=NO ),Airmass (>38.000=NO), Daylight (YES)
Table cut-offs 2: Solar elongation (  0.0,180.0=NO ),Local Hour Angle( 0.0=NO )
Table cut-offs 3: RA/DEC angular rate (     0.0=NO )                           
*******************************************************************************
 Date__(UT)__HR:MN     R.A._________(ICRF)_________DEC
******************************************************
$$SOE
 2018-Aug-02 09:50  m  18 14 10.637846 -22 37 28.03252
 2018-Aug-02 09:51  m  18 14 10.626778 -22 37 28.05892
 2018-Aug-02 09:52  m  18 14 10.615709 -22 37 28.08531
 2018-Aug-02 09:53  m  18 14 10.604640 -22 37 28.11169
 2018-Aug-02 09:54  m  18 14 10.593570 -22 37 28.13806
 2018-Aug-02 09:55  m  18 14 10.582501 -22 37 28.16442
 2018-Aug-02 09:56  m  18 14 10.571432 -22 37 28.19077
 2018-Aug-02 09:57  m  18 14 10.560362 -22 37 28.21711
 2018-Aug-02 09:58  m  18 14 10.549292 -22 37 28.24344
 2018-Aug-02 09:59  m  18 14 10.538222 -22 37 28.26977
 2018-Aug-02 10:00  m  18 14 10.527152 -22 37 28.29608
 2018-Aug-02 10:01  m  18 14 10.516082 -22 37 28.32238
 2018-Aug-02 10:02  m  18 14 10.505012 -22 37 28.34868
 2018-Aug-02 10:03  m  18 14 10.493941 -22 37 28.37496
 2018-Aug-02 10:04  m  18 14 10.482871 -22 37 28.40124
 2018-Aug-02 10:05  m  18 14 10.471800 -22 37 28.42750
 2018-Aug-02 10:06  m  18 14 10.460729 -22 37 28.45376
 2018-Aug-02 10:07  m  18 14 10.449659 -22 37 28.48000
 2018-Aug-02 10:08  m  18 14 10.438588 -22 37 28.50624
 2018-Aug-02 10:09  m  18 14 10.427517 -22 37 28.53247
 2018-Aug-02 10:10  m  18 14 10.416446 -22 37 28.55869
 2018-Aug-02 10:11  m  18 14 10.405375 -22 37 28.58490
 2018-Aug-02 10:12  m  18 14 10.394303 -22 37 28.61110
 2018-Aug-02 10:13  m  18 14 10.383232 -22 37 28.63729
 2018-Aug-02 10:14  m  18 14 10.372161 -22 37 28.66347
 2018-Aug-02 10:15  m  18 14 10.361089 -22 37 28.68964
 2018-Aug-02 10:16  m  18 14 10.350018 -22 37 28.71580
 2018-Aug-02 10:17  m  18 14 10.338946 -22 37 28.74195
 2018-Aug-02 10:18  m  18 14 10.327875 -22 37 28.76810
 2018-Aug-02 10:19  m  18 14 10.316803 -22 37 28.79423
 2018-Aug-02 10:20  m  18 14 10.305732 -22 37 28.82035
 2018-Aug-02 10:21  m  18 14 10.294660 -22 37 28.84647
 2018-Aug-02 10:22  m  18 14 10.283588 -22 37 28.87258
 2018-Aug-02 10:23  m  18 14 10.272517 -22 37 28.89867
 2018-Aug-02 10:24  m  18 14 10.261445 -22 37 28.92476
 2018-Aug-02 10:25  m  18 14 10.250373 -22 37 28.95084
 2018-Aug-02 10:26  m  18 14 10.239302 -22 37 28.97691
 2018-Aug-02 10:27  m  18 14 10.228230 -22 37 29.00297
 2018-Aug-02 10:28  m  18 14 10.217158 -22 37 29.02902
 2018-Aug-02 10:29  m  18 14 10.206087 -22 37 29.05506
 2018-Aug-02 10:30  m  18 14 10.195015 -22 37 29.08110
 2018-Aug-02 10:31  m  18 14 10.183943 -22 37 29.10712
 2018-Aug-02 10:32  m  18 14 10.172872 -22 37 29.13314
 2018-Aug-02 10:33  m  18 14 10.161800 -22 37 29.15914
 2018-Aug-02 10:34  m  18 14 10.150728 -22 37 29.18514
 2018-Aug-02 10:35  m  18 14 10.139657 -22 37 29.21113
 2018-Aug-02 10:36  m  18 14 10.128585 -22 37 29.23711
 2018-Aug-02 10:37  m  18 14 10.117514 -22 37 29.26308
 2018-Aug-02 10:38  m  18 14 10.106442 -22 37 29.28904
 2018-Aug-02 10:39  m  18 14 10.095371 -22 37 29.31499
 2018-Aug-02 10:40  m  18 14 10.084300 -22 37 29.34093
 2018-Aug-02 10:41  m  18 14 10.073228 -22 37 29.36687
 2018-Aug-02 10:42  m  18 14 10.062157 -22 37 29.39279
 2018-Aug-02 10:43  m  18 14 10.051086 -22 37 29.41871
 2018-Aug-02 10:44  m  18 14 10.040015 -22 37 29.44462
 2018-Aug-02 10:45  m  18 14 10.028944 -22 37 29.47051
 2018-Aug-02 10:46  m  18 14 10.017873 -22 37 29.49640
 2018-Aug-02 10:47  m  18 14 10.006802 -22 37 29.52228
 2018-Aug-02 10:48  m  18 14 09.995731 -22 37 29.54816
 2018-Aug-02 10:49  m  18 14 09.984661 -22 37 29.57402
 2018-Aug-02 10:50  m  18 14 09.973590 -22 37 29.59988
 2018-Aug-02 10:51  m  18 14 09.962520 -22 37 29.62572
 2018-Aug-02 10:52  m  18 14 09.951449 -22 37 29.65156
 2018-Aug-02 10:53  m  18 14 09.940379 -22 37 29.67739
 2018-Aug-02 10:54  m  18 14 09.929309 -22 37 29.70321
 2018-Aug-02 10:55  m  18 14 09.918239 -22 37 29.72902
 2018-Aug-02 10:56  m  18 14 09.907169 -22 37 29.75482
 2018-Aug-02 10:57  m  18 14 09.896099 -22 37 29.78062
 2018-Aug-02 10:58  m  18 14 09.885029 -22 37 29.80640
 2018-Aug-02 10:59  m  18 14 09.873960 -22 37 29.83218
 2018-Aug-02 11:00  m  18 14 09.862890 -22 37 29.85795
 2018-Aug-02 11:01  m  18 14 09.851821 -22 37 29.88371
 2018-Aug-02 11:02  m  18 14 09.840752 -22 37 29.90946
 2018-Aug-02 11:03  m  18 14 09.829683 -22 37 29.93520
 2018-Aug-02 11:04  m  18 14 09.818614 -22 37 29.96094
 2018-Aug-02 11:05  m  18 14 09.807546 -22 37 29.98666
 2018-Aug-02 11:06  m  18 14 09.796477 -22 37 30.01238
 2018-Aug-02 11:07  m  18 14 09.785409 -22 37 30.03809
 2018-Aug-02 11:08  m  18 14 09.774341 -22 37 30.06379
 2018-Aug-02 11:09  m  18 14 09.763273 -22 37 30.08948
 2018-Aug-02 11:10  m  18 14 09.752205 -22 37 30.11517
 2018-Aug-02 11:11  m  18 14 09.741137 -22 37 30.14084
 2018-Aug-02 11:12  m  18 14 09.730070 -22 37 30.16651
 2018-Aug-02 11:13  m  18 14 09.719002 -22 37 30.19217
 2018-Aug-02 11:14  m  18 14 09.707935 -22 37 30.21782
 2018-Aug-02 11:15  m  18 14 09.696868 -22 37 30.24346
 2018-Aug-02 11:16  m  18 14 09.685802 -22 37 30.26910
 2018-Aug-02 11:17  m  18 14 09.674735 -22 37 30.29472
 2018-Aug-02 11:18  m  18 14 09.663669 -22 37 30.32034
 2018-Aug-02 11:19  m  18 14 09.652603 -22 37 30.34595
 2018-Aug-02 11:20  m  18 14 09.641537 -22 37 30.37155
 2018-Aug-02 11:21  m  18 14 09.630471 -22 37 30.39714
 2018-Aug-02 11:22  m  18 14 09.619406 -22 37 30.42273
 2018-Aug-02 11:23  m  18 14 09.608340 -22 37 30.44831
 2018-Aug-02 11:24  m  18 14 09.597275 -22 37 30.47388
 2018-Aug-02 11:25  m  18 14 09.586210 -22 37 30.49944
 2018-Aug-02 11:26  m  18 14 09.575146 -22 37 30.52499
 2018-Aug-02 11:27  m  18 14 09.564082 -22 37 30.55054
 2018-Aug-02 11:28  m  18 14 09.553017 -22 37 30.57607
 2018-Aug-02 11:29  m  18 14 09.541954 -22 37 30.60160
 2018-Aug-02 11:30  m  18 14 09.530890 -22 37 30.62712
 2018-Aug-02 11:31  m  18 14 09.519827 -22 37 30.65264
 2018-Aug-02 11:32  m  18 14 09.508763 -22 37 30.67814
 2018-Aug-02 11:33  m  18 14 09.497701 -22 37 30.70364
 2018-Aug-02 11:34  m  18 14 09.486638 -22 37 30.72913
 2018-Aug-02 11:35  m  18 14 09.475576 -22 37 30.75461
 2018-Aug-02 11:36  m  18 14 09.464514 -22 37 30.78009
 2018-Aug-02 11:37  m  18 14 09.453452 -22 37 30.80555
 2018-Aug-02 11:38  m  18 14 09.442390 -22 37 30.83101
 2018-Aug-02 11:39  m  18 14 09.431329 -22 37 30.85646
 2018-Aug-02 11:40  m  18 14 09.420268 -22 37 30.88191
 2018-Aug-02 11:41  m  18 14 09.409207 -22 37 30.90734
 2018-Aug-02 11:42  m  18 14 09.398147 -22 37 30.93277
 2018-Aug-02 11:43  m  18 14 09.387087 -22 37 30.95819
 2018-Aug-02 11:44  m  18 14 09.376027 -22 37 30.98361
 2018-Aug-02 11:45  m  18 14 09.364967 -22 37 31.00901
 2018-Aug-02 11:46  m  18 14 09.353908 -22 37 31.03441
 2018-Aug-02 11:47  m  18 14 09.342849 -22 37 31.05980
 2018-Aug-02 11:48  m  18 14 09.331790 -22 37 31.08518
 2018-Aug-02 11:49  m  18 14 09.320732 -22 37 31.11056
 2018-Aug-02 11:50  m  18 14 09.309674 -22 37 31.13592
 2018-Aug-02 11:51  m  18 14 09.298616 -22 37 31.16128
 2018-Aug-02 11:52  m  18 14 09.287558 -22 37 31.18664
 2018-Aug-02 11:53  m  18 14 09.276501 -22 37 31.21198
 2018-Aug-02 11:54  m  18 14 09.265444 -22 37 31.23732
 2018-Aug-02 11:55  m  18 14 09.254388 -22 37 31.26265
 2018-Aug-02 11:56  m  18 14 09.243332 -22 37 31.28798
 2018-Aug-02 11:57  m  18 14 09.232276 -22 37 31.31329
 2018-Aug-02 11:58  m  18 14 09.221220 -22 37 31.33860
 2018-Aug-02 11:59  m  18 14 09.210165 -22 37 31.36390
 2018-Aug-02 12:00  m  18 14 09.199110 -22 37 31.38920
 2018-Aug-02 12:01  m  18 14 09.188056 -22 37 31.41448
 2018-Aug-02 12:02  m  18 14 09.177002 -22 37 31.43976
 2018-Aug-02 12:03  m  18 14 09.165948 -22 37 31.46504
 2018-Aug-02 12:04  m  18 14 09.154894 -22 37 31.49030
 2018-Aug-02 12:05  m  18 14 09.143841 -22 37 31.51556
 2018-Aug-02 12:06  m  18 14 09.132788 -22 37 31.54081
 2018-Aug-02 12:07  m  18 14 09.121736 -22 37 31.56606
 2018-Aug-02 12:08  m  18 14 09.110684 -22 37 31.59129
 2018-Aug-02 12:09  m  18 14 09.099632 -22 37 31.61652
 2018-Aug-02 12:10  m  18 14 09.088581 -22 37 31.64175
